[{"OBJECT_NAME":"OBJECT D","OBJECT_ID":"2024-174D","EPOCH":"2026-03-10T00:15:10.483200","MEAN_MOTION":15.28039787,"ECCENTRICITY":0.00110644,"INCLINATION":97.4441,"RA_OF_ASC_NODE":80.4677,"ARG_OF_PERICENTER":212.9968,"MEAN_ANOMALY":147.0582,"EPHEMERIS_TYPE":0,"CLASSIFICATION_TYPE":"U","NORAD_CAT_ID":61241,"ELEMENT_SET_NO":999,"REV_AT_EPOCH":8076,"BSTAR":0.00036340099,"MEAN_MOTION_DOT":9.884e-5,"MEAN_MOTION_DDOT":0},{"OBJECT_NAME":"STARLINK-32662","OBJECT_ID":"2024-229Z","EPOCH":"2026-03-09T21:58:31.251936","MEAN_MOTION":15.27605097,"ECCENTRICITY":0.00013266,"INCLINATION":42.9993,"RA_OF_ASC_NODE":269.6289,"ARG_OF_PERICENTER":357.7743,"MEAN_ANOMALY":2.3103,"EPHEMERIS_TYPE":0,"CLASSIFICATION_TYPE":"U","NORAD_CAT_ID":62215,"ELEMENT_SET_NO":999,"REV_AT_EPOCH":7059,"BSTAR":0.0011472043,"MEAN_MOTION_DOT":0.00031465,"MEAN_MOTION_DDOT":0}]
